0 COSMOS 2442 (GLONASS)
1 33378U 08046A   13281.70072846  .00000067  00000-0  10000-3 0  4331
2 33378 064.9108 110.5360 0021786 335.4941 207.6171 02.13103806 39193
0 COSMOS 2442 (GLONASS)
1 33378U 08046A   13282.88764183  .00000068  00000-0  10000-3 0  4345
2 33378 064.9111 110.4960 0021761 335.5402 038.1372 02.13103808 39224
0 COSMOS 2442 (GLONASS)
1 33378U 08046A   13284.06659938  .00000073  00000-0  10000-3 0  4355
2 33378 064.9116 110.4560 0021754 335.5356 222.6046 02.13103807 39244
0 COSMOS 2442 (GLONASS)
1 33378U 08046A   13285.44615345  .00000082  00000-0  10000-3 0  4363
2 33378 064.9119 110.4095 0021723 335.6028 200.8914 02.13103799 39278
0 COSMOS 2442 (GLONASS)
1 33378U 08046A   13286.62091795  .00000088  00000-0  10000-3 0  4378
2 33378 064.9122 110.3699 0021720 335.6691 022.0708 02.13103803 39297
0 COSMOS 2442 (GLONASS)
1 33378U 08046A   13288.14853332  .00000088  00000-0  10000-3 0  4381
2 33378 064.9125 110.3184 0021663 335.6337 114.0483 02.13103791 39335
0 COSMOS 2442 (GLONASS)
1 33378U 08046A   13289.34688297  .00000079  00000-0  10000-3 0  4391
2 33378 064.9127 110.2779 0021624 335.6215 313.3995 02.13103779 39358
0 COSMOS 2442 (GLONASS)
1 33378U 08046A   13290.66320433  .00000064  00000-0  10000-3 0  4409
2 33378 064.9131 110.2334 0021600 335.6233 243.2410 02.13103767 39387
0 COSMOS 2442 (GLONASS)
1 33378U 08046A   13291.72645453  .00000051  00000-0  10000-3 0  4416
2 33378 064.9134 110.1975 0021593 335.6351 338.9237 02.13103759 39405
0 COSMOS 2442 (GLONASS)
1 33378U 08046A   13292.99362882  .00000039  00000-0  10000-3 0  4425
2 33378 064.9137 110.1547 0021572 335.6097 231.0883 02.13103744 39434
0 COSMOS 2442 (GLONASS)
1 33378U 08046A   13294.31006356  .00000034  00000-0  10000-3 0  4430
2 33378 064.9140 110.1102 0021557 335.6038 161.0244 02.13103725 39468
0 COSMOS 2442 (GLONASS)
1 33378U 08046A   13295.36103457  .00000036  00000-0  10000-3 0  4449
2 33378 064.9145 110.0744 0021488 335.5736 247.3282 02.13103691 39485
